{
  "type": "FeatureCollection",
  "_notice": "FORMAT EXAMPLE — one illustrative mangrove polygon (not real data). Real labels: Drive .../data/labels/labels_{year}.geojson, drawn in EPSG:4326, all features class=1.",
  "features": [
    {
      "type": "Feature",
      "properties": { "class": 1, "year": 2024, "note": "illustrative only" },
      "geometry": {
        "type": "Polygon",
        "coordinates": [[
          [120.3345, 16.3705],
          [120.3372, 16.3698],
          [120.3384, 16.3721],
          [120.3361, 16.3740],
          [120.3340, 16.3726],
          [120.3345, 16.3705]
        ]]
      }
    }
  ]
}v
