{
  "type": "Feature",
  "properties": {
    "name": "Brgy. Dulao, Aringay, La Union — study area boundary",
    "crs_note": "EPSG:4326 (lon, lat). Coastal mangrove zone, verified through NDVI analysis of Sentinel-2 imagery.",
    "scene_window": "Feb 1 - Apr 30 (fixed dry season)",
    "years": [2019, 2020, 2021, 2022, 2023, 2024]
  },
  "geometry": {
    "type": "Polygon",
    "coordinates": [[
      [120.33213318747562, 16.368938079569283],
      [120.33393563193363, 16.36683809979862],
      [120.33487976950687, 16.367291038523962],
      [120.33629597586673, 16.366426336408516],
      [120.33629597586673, 16.36601457214936],
      [120.3402871028809,  16.363873383993326],
      [120.3429907695679,  16.364820450883474],
      [120.34286202353519, 16.367826328389004],
      [120.34221829337162, 16.36992629752131],
      [120.34191788596195, 16.373220321200336],
      [120.34080208701175, 16.376431940716547],
      [120.34093083304447, 16.377502468799737],
      [120.34037293356937, 16.378325947940613],
      [120.33801258963626, 16.37882003375547],
      [120.33676804465335, 16.380796364491815],
      [120.33384980124515, 16.383266749732627],
      [120.33307732504886, 16.384584275723817],
      [120.33063115042728, 16.384666620802506],
      [120.32977284354251, 16.387136956981955],
      [120.32735516984349, 16.387870006116763],
      [120.32031705338841, 16.386058436129765],
      [120.32246282060032, 16.382311726583545],
      [120.32576730210667, 16.377082681868],
      [120.32722642381077, 16.374323995463598],
      [120.33001592118626, 16.370330007188112],
      [120.33213318747562, 16.368938079569283]
    ]]
  }
}
